     2.100          NAVIGATION                              RINEX VERSION / TYPE
fic2rin                                 09/15/2017 00:05:26 PGM / RUN BY / DATE
                                                            END OF HEADER
26 17  9 14 13 59 44.0 -.426232349128D-03  .104591890704D-10  .000000000000D+00
     .110000000000D+02  .734375000000D+02  .454661795632D-08 -.119750160847D+01
     .364892184734D-05  .188332214020D-02  .615045428276D-05  .515377044106D+04
     .395984000000D+06  .186264514923D-08 -.227831511583D+00 -.111758708954D-07
     .958332404243D+00  .256968750000D+03 -.855159442538D-02 -.823891461244D-08
     .202865593023D-09  .100000000000D+01  .196600000000D+04  .000000000000D+00
     .240000000000D+01  .000000000000D+00  .745058059692D-08  .110000000000D+02
     .394896000000D+06  .400000000000D+01
 3 17  9 14 15 59 44.0 -.678785145283D-04  .432009983342D-11  .000000000000D+00
     .200000000000D+01  .127812500000D+02  .472698261209D-08  .117473245159D+01
     .687316060066D-06  .981202232651D-03  .882521271706D-05  .515365772629D+04
     .403184000000D+06  .316649675369D-07  .292864306530D+01  .447034835815D-07
     .960539543859D+00  .207375000000D+03  .417400116996D+00 -.809640867649D-08
     .233581158164D-09  .100000000000D+01  .196600000000D+04  .000000000000D+00
     .240000000000D+01  .000000000000D+00  .232830643654D-08  .200000000000D+01
     .396006000000D+06  .400000000000D+01
25 17  9 14 15 59 44.0 -.456109642982D-03 -.636646291241D-11  .000000000000D+00
     .200000000000D+02  .857187500000D+02  .415588739511D-08  .426280451058D+00
     .427663326263D-05  .655025220476D-02  .670365989208D-05  .515376071167D+04
     .403184000000D+06 -.540167093277D-07 -.210532130788D+00  .689178705215D-07
     .976644653924D+00  .261343750000D+03  .826519038030D+00 -.816105422638D-08
     .216437586923D-09  .100000000000D+01  .196600000000D+04  .000000000000D+00
     .240000000000D+01  .000000000000D+00  .558793544769D-08  .200000000000D+02
     .396006000000D+06  .400000000000D+01
26 17  9 14 15 59 44.0 -.426156446338D-03  .104591890704D-10  .000000000000D+00
     .840000000000D+02  .752187500000D+02  .448697261471D-08 -.147351772536D+00
     .399909913540D-05  .188273517415D-02  .650621950626D-05  .515376963997D+04
     .403184000000D+06  .279396772385D-07 -.227890846077D+00 -.316649675369D-07
     .958333903734D+00  .250343750000D+03 -.857994577775D-02 -.822462830307D-08
     .202151277555D-09  .100000000000D+01  .196600000000D+04  .000000000000D+00
     .240000000000D+01  .000000000000D+00  .745058059692D-08  .840000000000D+02
     .396006000000D+06  .400000000000D+01
 1 17  9 14 16  0  0.0 -.193994492292D-05 -.454747350886D-12  .000000000000D+00
     .185000000000D+03 -.766562500000D+02  .437196782429D-08  .209909131471D+01
    -.399537384510D-05  .705059908796D-02  .955164432526D-05  .515368463898D+04
     .403200000000D+06 -.186264514923D-06  .188608068471D+01 -.502914190292D-07
     .968319113989D+00  .200406250000D+03  .622122489533D+00 -.791318675885D-08
     .567880797372D-10  .100000000000D+01  .196600000000D+04  .000000000000D+00
     .240000000000D+01  .000000000000D+00  .558793544769D-08  .185000000000D+03
     .396006000000D+06  .400000000000D+01
 2 17  9 14 16  0  0.0  .330396462232D-03 -.909494701773D-11  .000000000000D+00
     .280000000000D+02 -.109437500000D+03  .470341020163D-08  .249485183483D+01
    -.568106770515D-05  .170490849996D-01  .963173806667D-05  .515358738708D+04
     .403200000000D+06  .912696123123D-07  .183034655461D+01 -.221654772758D-06
     .947275727916D+00  .181406250000D+03 -.195617753385D+01 -.785997025645D-08
    -.321441960776D-11  .100000000000D+01  .196600000000D+04  .000000000000D+00
     .240000000000D+01  .000000000000D+00 -.204890966415D-07  .280000000000D+02
     .396006000000D+06  .400000000000D+01
 4 17  9 14 16  0  0.0  .264937989414D-04  .693489710102D-11  .000000000000D+00
     .900000000000D+02 -.289062500000D+02  .480912889095D-08 -.175500921984D+01
    -.173225998878D-05  .123373696115D-01  .305846333504D-05  .515366670036D+04
     .403200000000D+06  .121071934700D-06  .739033336025D+00 -.162050127983D-06
     .956998797881D+00  .316156250000D+03  .438568213909D+00 -.837142013182D-08
     .250367571671D-09  .100000000000D+01  .196600000000D+04  .000000000000D+00
     .240000000000D+01  .630000000000D+02 -.558793544769D-08  .900000000000D+02
     .396006000000D+06  .400000000000D+01
 5 17  9 14 16  0  0.0 -.294614583254D-04  .136424205266D-11  .000000000000D+00
     .660000000000D+02  .131250000000D+01  .496592113626D-08 -.125697343721D+01
     .782310962677D-07  .519302976318D-02  .876560807228D-05  .515355083275D+04
     .403200000000D+06  .134110450745D-06  .291032490690D+01 -.186264514923D-07
     .947470398425D+00  .203406250000D+03  .579643437367D+00 -.813819613139D-08
     .298941023522D-09  .100000000000D+01  .196600000000D+04  .000000000000D+00
     .240000000000D+01  .000000000000D+00 -.107102096081D-07  .660000000000D+02
     .396006000000D+06  .400000000000D+01
 6 17  9 14 16  0  0.0  .397345051169D-03  .306954461848D-11  .000000000000D+00
     .170000000000D+02 -.826250000000D+02  .432053711057D-08  .222473311377D+01
    -.417046248913D-05  .558677478693D-03  .100564211607D-04  .515375216866D+04
     .403200000000D+06  .111758708954D-07  .187771807443D+01 -.409781932831D-07
     .968071829632D+00  .186437500000D+03 -.108399428771D+01 -.794711674360D-08
     .242867259253D-10  .100000000000D+01  .196600000000D+04  .000000000000D+00
     .240000000000D+01  .000000000000D+00  .465661287308D-08  .170000000000D+02
     .396006000000D+06  .400000000000D+01
 7 17  9 14 16  0  0.0  .306182540953D-03 -.488853402203D-11  .000000000000D+00
     .400000000000D+02  .452812500000D+02  .434803825610D-08  .147189346351D+01
     .245869159698D-05  .110623904038D-01  .979192554951D-05  .515372433472D+04
     .403200000000D+06 -.143423676491D-06 -.124059022496D+01  .726431608200D-07
     .960891807218D+00  .193812500000D+03 -.256143909669D+01 -.799319009131D-08
    -.399302346831D-09  .100000000000D+01  .196600000000D+04  .000000000000D+00
     .240000000000D+01  .630000000000D+02 -.111758708954D-07  .400000000000D+02
     .396006000000D+06  .400000000000D+01
 8 17  9 14 16  0  0.0 -.734860077500D-04 -.136424205266D-11  .000000000000D+00
     .890000000000D+02 -.325625000000D+02  .458804825348D-08 -.146835919094D+01
    -.185333192348D-05  .261338276323D-02  .399351119995D-05  .515369055557D+04
     .403200000000D+06 -.428408384323D-07  .822175071029D+00 -.931322574615D-07
     .967543141278D+00  .308968750000D+03 -.627980276848D+00 -.833570435840D-08
     .671456540289D-10  .100000000000D+01  .196600000000D+04  .000000000000D+00
     .340000000000D+01  .000000000000D+00  .558793544769D-08  .890000000000D+02
     .396006000000D+06  .400000000000D+01
 9 17  9 14 16  0  0.0  .442612916231D-03  .625277607469D-11  .000000000000D+00
     .910000000000D+02  .184375000000D+01  .495056335369D-08 -.184458884331D+01
    -.614672899246D-07  .794538296759D-03  .690855085850D-05  .515377073669D+04
     .403200000000D+06 -.186264514923D-07 -.231940186058D+01  .689178705215D-07
     .953269581242D+00  .241968750000D+03  .189000289681D+01 -.821927093705D-08
    -.309298597814D-09  .100000000000D+01  .196600000000D+04  .000000000000D+00
     .240000000000D+01  .000000000000D+00  .931322574615D-09  .910000000000D+02
     .396006000000D+06  .400000000000D+01
10 17  9 14 16  0  0.0  .645732507110D-04  .977706804406D-11  .000000000000D+00
     .520000000000D+02 -.140625000000D+01  .466376569313D-08  .643729027384D-01
    -.245869159698D-06  .274562183768D-02  .898540019989D-05  .515367053986D+04
     .403200000000D+06 -.372529029846D-08  .292500971515D+01 -.391155481339D-07
     .960682023302D+00  .204906250000D+03 -.284483043753D+01 -.806462163815D-08
     .186079179516D-09  .100000000000D+01  .196600000000D+04  .000000000000D+00
     .240000000000D+01  .000000000000D+00  .186264514923D-08  .520000000000D+02
     .396006000000D+06  .400000000000D+01
11 17  9 14 16  0  0.0 -.715551897883D-03 -.227373675443D-11  .000000000000D+00
     .630000000000D+02 -.941562500000D+02  .593596154234D-08  .149680410717D+01
    -.521354377270D-05  .170819686027D-01  .604242086411D-05  .515373279953D+04
     .403200000000D+06  .128522515297D-06  .147602881692D+01 -.424683094025D-06
     .901930659775D+00  .232562500000D+03  .169223516514D+01 -.877465121373D-08
     .357157734196D-12  .100000000000D+01  .196600000000D+04  .000000000000D+00
     .240000000000D+01  .000000000000D+00 -.121071934700D-07  .630000000000D+02
     .396006000000D+06  .400000000000D+01
12 17  9 14 16  0  0.0  .372741837054D-03 -.125055521494D-11  .000000000000D+00
     .660000000000D+02  .810000000000D+02  .391409160905D-08  .859120568266D+00
     .396184623241D-05  .652764749248D-02  .606477260590D-05  .515372316742D+04
     .403200000000D+06 -.726431608200D-07 -.153935139422D+00  .186264514923D-08
     .988828420856D+00  .276312500000D+03  .914915469445D+00 -.805712132573D-08
     .204294223960D-09  .100000000000D+01  .196600000000D+04  .000000000000D+00
     .240000000000D+01  .000000000000D+00 -.125728547573D-07  .660000000000D+02
     .396006000000D+06  .400000000000D+01
13 17  9 14 16  0  0.0 -.913697294891D-04 -.568434188608D-12  .000000000000D+00
     .560000000000D+02  .559375000000D+01  .445661420730D-08  .268902289463D+01
     .391155481339D-06  .349801743869D-02  .748224556446D-05  .515364966965D+04
     .403200000000D+06  .260770320892D-07 -.219150263994D+01  .596046447754D-07
     .969142113665D+00  .239437500000D+03  .175207244983D+01 -.788068540504D-08
    -.333228166005D-09  .100000000000D+01  .196600000000D+04  .000000000000D+00
     .240000000000D+01  .000000000000D+00 -.111758708954D-07  .560000000000D+02
     .396006000000D+06  .400000000000D+01
